{
    "links": {
        "self": "http://www.neowsapp.com/rest/v1/neo/3841773?api_key=iIulBulltgU6a56xZRHN4H3l9WmuAYTsLGpBGhQ2"
    },
    "id": "3841773",
    "neo_reference_id": "3841773",
    "name": "(2019 JG3)",
    "designation": "2019 JG3",
    "nasa_jpl_url": "http://ssd.jpl.nasa.gov/sbdb.cgi?sstr=3841773",
    "absolute_magnitude_h": 21.9,
    "estimated_diameter": {
        "kilometers": {
            "estimated_diameter_min": 0.1108038821,
            "estimated_diameter_max": 0.2477650126
        },
        "meters": {
            "estimated_diameter_min": 110.8038821264,
            "estimated_diameter_max": 247.7650126055
        },
        "miles": {
            "estimated_diameter_min": 0.068850319,
            "estimated_diameter_max": 0.1539539936
        },
        "feet": {
            "estimated_diameter_min": 363.5298086356,
            "estimated_diameter_max": 812.8773639568
        }
    },
    "is_potentially_hazardous_asteroid": false,
    "close_approach_data": [
        {
            "close_approach_date": "2017-12-12",
            "close_approach_date_full": "2017-Dec-12 14:52",
            "epoch_date_close_approach": 1513090320000,
            "relative_velocity": {
                "kilometers_per_second": "29.3052383016",
                "kilometers_per_hour": "105498.8578855872",
                "miles_per_hour": "65552.8875567417"
            },
            "miss_distance": {
                "astronomical": "0.444172956",
                "lunar": "172.783279884",
                "kilometers": "66447328.12920372",
                "miles": "41288455.128382536"
            },
            "orbiting_body": "Earth"
        },
        {
            "close_approach_date": "2019-05-30",
            "close_approach_date_full": "2019-May-30 17:49",
            "epoch_date_close_approach": 1559238540000,
            "relative_velocity": {
                "kilometers_per_second": "14.8495024932",
                "kilometers_per_hour": "53458.2089756953",
                "miles_per_hour": "33216.852127148"
            },
            "miss_distance": {
                "astronomical": "0.1400979726",
                "lunar": "54.4981113414",
                "kilometers": "20958358.292278362",
                "miles": "13022919.9619989156"
            },
            "orbiting_body": "Earth"
        },
        {
            "close_approach_date": "2024-11-21",
            "close_approach_date_full": "2024-Nov-21 01:42",
            "epoch_date_close_approach": 1732153320000,
            "relative_velocity": {
                "kilometers_per_second": "16.3114154325",
                "kilometers_per_hour": "58721.0955569784",
                "miles_per_hour": "36487.0051809458"
            },
            "miss_distance": {
                "astronomical": "0.1298373303",
                "lunar": "50.5067214867",
                "kilometers": "19423388.059366461",
                "miles": "12069133.6869247218"
            },
            "orbiting_body": "Earth"
        },
        {
            "close_approach_date": "2026-05-06",
            "close_approach_date_full": "2026-May-06 14:19",
            "epoch_date_close_approach": 1778077140000,
            "relative_velocity": {
                "kilometers_per_second": "27.0509256629",
                "kilometers_per_hour": "97383.3323862877",
                "miles_per_hour": "60510.2156152464"
            },
            "miss_distance": {
                "astronomical": "0.3828275348",
                "lunar": "148.9199110372",
                "kilometers": "57270183.783430876",
                "miles": "35586042.0563270488"
            },
            "orbiting_body": "Earth"
        },
        {
            "close_approach_date": "2147-12-15",
            "close_approach_date_full": "2147-Dec-15 01:17",
            "epoch_date_close_approach": 5615659020000,
            "relative_velocity": {
                "kilometers_per_second": "29.1463816997",
                "kilometers_per_hour": "104926.9741188966",
                "miles_per_hour": "65197.5412240444"
            },
            "miss_distance": {
                "astronomical": "0.4386432155",
                "lunar": "170.6322108295",
                "kilometers": "65620090.728750985",
                "miles": "40774433.643234193"
            },
            "orbiting_body": "Earth"
        }
    ],
    "orbital_data": {
        "orbit_id": "6",
        "orbit_determination_date": "2019-05-30 06:31:09",
        "first_observation_date": "2019-05-07",
        "last_observation_date": "2019-05-30",
        "data_arc_in_days": 23,
        "observations_used": 45,
        "orbit_uncertainty": "7",
        "minimum_orbit_intersection": ".129586",
        "jupiter_tisserand_invariant": "4.483",
        "epoch_osculation": "2459000.5",
        "eccentricity": ".5424376704387731",
        "semi_major_axis": "1.442756143955931",
        "inclination": "7.728424999011445",
        "ascending_node_longitude": "136.2854472121027",
        "orbital_period": "632.9768481645058",
        "perihelion_distance": ".6601508622172487",
        "perihelion_argument": "195.9552734558482",
        "aphelion_distance": "2.225361425694614",
        "perihelion_time": "2458685.466005430686",
        "mean_anomaly": "179.172806041522",
        "mean_motion": ".5687411807302608",
        "equinox": "J2000",
        "orbit_class": {
            "orbit_class_type": "APO",
            "orbit_class_description": "Near-Earth asteroid orbits which cross the Earth’s orbit similar to that of 1862 Apollo",
            "orbit_class_range": "a (semi-major axis) > 1.0 AU; q (perihelion) < 1.017 AU"
        }
    },
    "is_sentry_object": false
}